ONEWEB-0367             
1 49293U 21090Q   26070.13375269  .00000024  00000+0  26198-4 0  9995
2 49293  87.9171 294.0172 0001833  88.1083 272.0260 13.20770037216884
ONEWEB-0368             
1 49294U 21090R   26070.03116535  .00000191  00000+0  43726-3 0  9994
2 49294  87.9160 294.0596 0001139 111.9323 248.1932 13.20770224218020
ONEWEB-0369             
1 49295U 21090S   26070.22666861  .00000026  00000+0  32497-4 0  9999
2 49295  87.9228 324.4956 0001624  85.2089 274.9229 13.19724700213493
ONEWEB-0370             
1 49296U 21090T   26070.14323462 -.00000015  00000+0 -69577-4 0  9997
2 49296  87.9166 294.0170 0001881  80.9826 279.1521 13.20770293216924
ONEWEB-0371             
1 49297U 21090U   26070.23456797 -.00000033  00000+0 -11411-3 0  9999
2 49297  87.9230 324.4833 0001815  81.0800 279.0539 13.19724957213538
ONEWEB-0372             
1 49298U 21090V   26070.13205348  .00000005  00000+0 -18512-4 0  9991
2 49298  87.9169 294.0192 0001650  90.1067 270.0255 13.20770304216890
ONEWEB-0373             
1 49299U 21090W   26070.15901133 -.00000007  00000+0 -49006-4 0  9994
2 49299  87.9158 294.0189 0001592  85.4484 274.6831 13.20770840218088
ONEWEB-0374             
1 49300U 21090X   26070.15513699 -.00000194  00000+0 -55869-3 0  9993
2 49300  87.8984 309.2582 0001088  75.4273 284.6977 13.14502722214687
ONEWEB-0375             
1 49301U 21090Y   26070.14639439 -.00000027  00000+0 -99339-4 0  9990
2 49301  87.9167 294.0095 0001281  68.2428 291.8842 13.20770740217586
ONEWEB-0376             
1 49302U 21090Z   26070.23297859 -.00000034  00000+0 -11740-3 0  9994
2 49302  87.9237 324.4765 0001743  89.1066 271.0267 13.19724349213534
ONEWEB-0377             
1 49303U 21090AA  26070.05656267 -.00000030  00000+0 -10616-3 0  9994
2 49303  87.9170 294.0295 0001704  78.0175 282.1149 13.20770537217567
ONEWEB-0378             
1 49304U 21090AB  26070.15440729  .00000010  00000+0 -69681-5 0  9995
2 49304  87.9157 294.0201 0001503  89.1548 270.9757 13.20770163216849
ONEWEB-0379             
1 49305U 21090AC  26070.15036597 -.00007311  00000+0 -19761-1 0  9992
2 49305  87.8989 309.2692 0001312  76.1997 283.9279 13.14538672214680
ONEWEB-0380             
1 49306U 21090AD  26070.22982084  .00000013  00000+0 -50280-6 0  9999
2 49306  87.9227 324.4928 0001679  70.0468 290.0846 13.19724401213501
ONEWEB-0381             
1 49307U 21090AE  26070.12902179  .00000087  00000+0  18240-3 0  9993
2 49307  87.9170 294.0185 0001399  80.7829 279.3462 13.20769929216888
ONEWEB-0382             
1 49308U 21090AF  26070.04063450  .00000151  00000+0  33894-3 0  9999
2 49308  87.9168 294.0325 0001316  78.8847 281.2434 13.20769809216865
