[{"OBJECT_NAME":"ONEWEB-0367","OBJECT_ID":"2021-090Q","EPOCH":"2026-03-11T03:12:36.232416","MEAN_MOTION":13.20770037,"ECCENTRICITY":0.00018339,"INCLINATION":87.9171,"RA_OF_ASC_NODE":294.0172,"ARG_OF_PERICENTER":88.1083,"MEAN_ANOMALY":272.026,"EPHEMERIS_TYPE":0,"CLASSIFICATION_TYPE":"U","NORAD_CAT_ID":49293,"ELEMENT_SET_NO":999,"REV_AT_EPOCH":21688,"BSTAR":2.6197765e-5,"MEAN_MOTION_DOT":2.4e-7,"MEAN_MOTION_DDOT":0},{"OBJECT_NAME":"ONEWEB-0368","OBJECT_ID":"2021-090R","EPOCH":"2026-03-11T00:44:52.686240","MEAN_MOTION":13.20770224,"ECCENTRICITY":0.00011396,"INCLINATION":87.916,"RA_OF_ASC_NODE":294.0596,"ARG_OF_PERICENTER":111.9323,"MEAN_ANOMALY":248.1932,"EPHEMERIS_TYPE":0,"CLASSIFICATION_TYPE":"U","NORAD_CAT_ID":49294,"ELEMENT_SET_NO":999,"REV_AT_EPOCH":21802,"BSTAR":0.00043725819,"MEAN_MOTION_DOT":1.91e-6,"MEAN_MOTION_DDOT":0},{"OBJECT_NAME":"ONEWEB-0369","OBJECT_ID":"2021-090S","EPOCH":"2026-03-11T05:26:24.167904","MEAN_MOTION":13.197247,"ECCENTRICITY":0.00016247,"INCLINATION":87.9228,"RA_OF_ASC_NODE":324.4956,"ARG_OF_PERICENTER":85.2089,"MEAN_ANOMALY":274.9229,"EPHEMERIS_TYPE":0,"CLASSIFICATION_TYPE":"U","NORAD_CAT_ID":49295,"ELEMENT_SET_NO":999,"REV_AT_EPOCH":21349,"BSTAR":3.2497409e-5,"MEAN_MOTION_DOT":2.6e-7,"MEAN_MOTION_DDOT":0},{"OBJECT_NAME":"ONEWEB-0370","OBJECT_ID":"2021-090T","EPOCH":"2026-03-11T03:26:15.471168","MEAN_MOTION":13.20770293,"ECCENTRICITY":0.0001881,"INCLINATION":87.9166,"RA_OF_ASC_NODE":294.017,"ARG_OF_PERICENTER":80.9826,"MEAN_ANOMALY":279.1521,"EPHEMERIS_TYPE":0,"CLASSIFICATION_TYPE":"U","NORAD_CAT_ID":49296,"ELEMENT_SET_NO":999,"REV_AT_EPOCH":21692,"BSTAR":-6.9577217e-5,"MEAN_MOTION_DOT":-1.5e-7,"MEAN_MOTION_DDOT":0},{"OBJECT_NAME":"ONEWEB-0371","OBJECT_ID":"2021-090U","EPOCH":"2026-03-11T05:37:46.672608","MEAN_MOTION":13.19724957,"ECCENTRICITY":0.00018151,"INCLINATION":87.923,"RA_OF_ASC_NODE":324.4833,"ARG_OF_PERICENTER":81.08,"MEAN_ANOMALY":279.0539,"EPHEMERIS_TYPE":0,"CLASSIFICATION_TYPE":"U","NORAD_CAT_ID":49297,"ELEMENT_SET_NO":999,"REV_AT_EPOCH":21353,"BSTAR":-0.00011410706,"MEAN_MOTION_DOT":-3.3e-7,"MEAN_MOTION_DDOT":0},{"OBJECT_NAME":"ONEWEB-0372","OBJECT_ID":"2021-090V","EPOCH":"2026-03-11T03:10:09.420672","MEAN_MOTION":13.20770304,"ECCENTRICITY":0.00016501,"INCLINATION":87.9169,"RA_OF_ASC_NODE":294.0192,"ARG_OF_PERICENTER":90.1067,"MEAN_ANOMALY":270.0255,"EPHEMERIS_TYPE":0,"CLASSIFICATION_TYPE":"U","NORAD_CAT_ID":49298,"ELEMENT_SET_NO":999,"REV_AT_EPOCH":21689,"BSTAR":-1.8512245e-5,"MEAN_MOTION_DOT":5.0e-8,"MEAN_MOTION_DDOT":0},{"OBJECT_NAME":"ONEWEB-0373","OBJECT_ID":"2021-090W","EPOCH":"2026-03-11T03:48:58.578912","MEAN_MOTION":13.2077084,"ECCENTRICITY":0.00015925,"INCLINATION":87.9158,"RA_OF_ASC_NODE":294.0189,"ARG_OF_PERICENTER":85.4484,"MEAN_ANOMALY":274.6831,"EPHEMERIS_TYPE":0,"CLASSIFICATION_TYPE":"U","NORAD_CAT_ID":49299,"ELEMENT_SET_NO":999,"REV_AT_EPOCH":21808,"BSTAR":-4.9005627e-5,"MEAN_MOTION_DOT":-7.0e-8,"MEAN_MOTION_DDOT":0},{"OBJECT_NAME":"ONEWEB-0374","OBJECT_ID":"2021-090X","EPOCH":"2026-03-11T03:43:23.835936","MEAN_MOTION":13.14502722,"ECCENTRICITY":0.00010882,"INCLINATION":87.8984,"RA_OF_ASC_NODE":309.2582,"ARG_OF_PERICENTER":75.4273,"MEAN_ANOMALY":284.6977,"EPHEMERIS_TYPE":0,"CLASSIFICATION_TYPE":"U","NORAD_CAT_ID":49300,"ELEMENT_SET_NO":999,"REV_AT_EPOCH":21468,"BSTAR":-0.00055868618,"MEAN_MOTION_DOT":-1.94e-6,"MEAN_MOTION_DDOT":0},{"OBJECT_NAME":"ONEWEB-0375","OBJECT_ID":"2021-090Y","EPOCH":"2026-03-11T03:30:48.475296","MEAN_MOTION":13.2077074,"ECCENTRICITY":0.0001281,"INCLINATION":87.9167,"RA_OF_ASC_NODE":294.0095,"ARG_OF_PERICENTER":68.2428,"MEAN_ANOMALY":291.8842,"EPHEMERIS_TYPE":0,"CLASSIFICATION_TYPE":"U","NORAD_CAT_ID":49301,"ELEMENT_SET_NO":999,"REV_AT_EPOCH":21758,"BSTAR":-9.9338922e-5,"MEAN_MOTION_DOT":-2.7e-7,"MEAN_MOTION_DDOT":0},{"OBJECT_NAME":"ONEWEB-0376","OBJECT_ID":"2021-090Z","EPOCH":"2026-03-11T05:35:29.350176","MEAN_MOTION":13.19724349,"ECCENTRICITY":0.00017439,"INCLINATION":87.9237,"RA_OF_ASC_NODE":324.4765,"ARG_OF_PERICENTER":89.1066,"MEAN_ANOMALY":271.0267,"EPHEMERIS_TYPE":0,"CLASSIFICATION_TYPE":"U","NORAD_CAT_ID":49302,"ELEMENT_SET_NO":999,"REV_AT_EPOCH":21353,"BSTAR":-0.0001173998,"MEAN_MOTION_DOT":-3.4e-7,"MEAN_MOTION_DDOT":0},{"OBJECT_NAME":"ONEWEB-0377","OBJECT_ID":"2021-090AA","EPOCH":"2026-03-11T01:21:27.014688","MEAN_MOTION":13.20770537,"ECCENTRICITY":0.0001704,"INCLINATION":87.917,"RA_OF_ASC_NODE":294.0295,"ARG_OF_PERICENTER":78.0175,"MEAN_ANOMALY":282.1149,"EPHEMERIS_TYPE":0,"CLASSIFICATION_TYPE":"U","NORAD_CAT_ID":49303,"ELEMENT_SET_NO":999,"REV_AT_EPOCH":21756,"BSTAR":-0.00010616126,"MEAN_MOTION_DOT":-3.0e-7,"MEAN_MOTION_DDOT":0},{"OBJECT_NAME":"ONEWEB-0378","OBJECT_ID":"2021-090AB","EPOCH":"2026-03-11T03:42:20.789856","MEAN_MOTION":13.20770163,"ECCENTRICITY":0.00015033,"INCLINATION":87.9157,"RA_OF_ASC_NODE":294.0201,"ARG_OF_PERICENTER":89.1548,"MEAN_ANOMALY":270.9757,"EPHEMERIS_TYPE":0,"CLASSIFICATION_TYPE":"U","NORAD_CAT_ID":49304,"ELEMENT_SET_NO":999,"REV_AT_EPOCH":21684,"BSTAR":-6.968111e-6,"MEAN_MOTION_DOT":1.0e-7,"MEAN_MOTION_DDOT":0},{"OBJECT_NAME":"ONEWEB-0379","OBJECT_ID":"2021-090AC","EPOCH":"2026-03-11T03:36:31.619808","MEAN_MOTION":13.14538672,"ECCENTRICITY":0.00013122,"INCLINATION":87.8989,"RA_OF_ASC_NODE":309.2692,"ARG_OF_PERICENTER":76.1997,"MEAN_ANOMALY":283.9279,"EPHEMERIS_TYPE":0,"CLASSIFICATION_TYPE":"U","NORAD_CAT_ID":49305,"ELEMENT_SET_NO":999,"REV_AT_EPOCH":21468,"BSTAR":-0.019760934,"MEAN_MOTION_DOT":-7.311e-5,"MEAN_MOTION_DDOT":0},{"OBJECT_NAME":"ONEWEB-0380","OBJECT_ID":"2021-090AD","EPOCH":"2026-03-11T05:30:56.520576","MEAN_MOTION":13.19724401,"ECCENTRICITY":0.00016792,"INCLINATION":87.9227,"RA_OF_ASC_NODE":324.4928,"ARG_OF_PERICENTER":70.0468,"MEAN_ANOMALY":290.0846,"EPHEMERIS_TYPE":0,"CLASSIFICATION_TYPE":"U","NORAD_CAT_ID":49306,"ELEMENT_SET_NO":999,"REV_AT_EPOCH":21350,"BSTAR":-5.02796e-7,"MEAN_MOTION_DOT":1.3e-7,"MEAN_MOTION_DDOT":0},{"OBJECT_NAME":"ONEWEB-0381","OBJECT_ID":"2021-090AE","EPOCH":"2026-03-11T03:05:47.482656","MEAN_MOTION":13.20769929,"ECCENTRICITY":0.00013992,"INCLINATION":87.917,"RA_OF_ASC_NODE":294.0185,"ARG_OF_PERICENTER":80.7829,"MEAN_ANOMALY":279.3462,"EPHEMERIS_TYPE":0,"CLASSIFICATION_TYPE":"U","NORAD_CAT_ID":49307,"ELEMENT_SET_NO":999,"REV_AT_EPOCH":21688,"BSTAR":0.00018240211,"MEAN_MOTION_DOT":8.7e-7,"MEAN_MOTION_DDOT":0},{"OBJECT_NAME":"ONEWEB-0382","OBJECT_ID":"2021-090AF","EPOCH":"2026-03-11T00:58:30.820800","MEAN_MOTION":13.20769809,"ECCENTRICITY":0.00013165,"INCLINATION":87.9168,"RA_OF_ASC_NODE":294.0325,"ARG_OF_PERICENTER":78.8847,"MEAN_ANOMALY":281.2434,"EPHEMERIS_TYPE":0,"CLASSIFICATION_TYPE":"U","NORAD_CAT_ID":49308,"ELEMENT_SET_NO":999,"REV_AT_EPOCH":21686,"BSTAR":0.0003389359,"MEAN_MOTION_DOT":1.51e-6,"MEAN_MOTION_DDOT":0}]
